LEMUR-2-GREENBERG       
1 42837U 17042N   26190.49536315  .00011532  00000+0  37497-3 0  9996
2 42837  97.3831  11.0293 0007135 283.6729  76.3718 15.32031511491802
LEMUR-2-ANDIS           
1 42838U 17042P   26192.75250957  .00012453  00000+0  35909-3 0  9992
2 42838  97.3677  13.5506 0007128 272.8241  87.2186 15.35830402492222
LEMUR-2-MONSON          
1 42839U 17042Q   26191.46928106  .00009600  00000+0  34677-3 0  9999
2 42839  97.4089  11.9359 0005156 266.7916  93.2733 15.28674858491721
LEMUR-2-FURIAUS         
1 42840U 17042R   26191.74629141  .00012077  00000+0  40490-3 0  9991
2 42840  97.3778  10.1778 0006359 347.2297  12.8782 15.31036825491817
LEMUR-2-DEMBITZ         
1 42842U 17042T   26192.48491306  .00009065  00000+0  30475-3 0  9990
2 42842  97.3826  13.9535 0005020 291.4687  68.6018 15.31034137492065
LEMUR-2-ZACHARY         
1 42845U 17042W   26192.76525310  .00031651  00000+0  51731-3 0  9991
2 42845  97.3581  24.9630 0002433 265.2719  94.8256 15.52486995493011
LEMUR-2-SPECIAL-K       
1 48273U 21034F   26192.77361529  .00163262  00000+0  11555-2 0  9992
2 48273  97.5609 281.5708 0006863 215.5770 144.5037 15.73471129285541
LEMUR-2-EMBRIONOVIS     
1 56970U 23084AQ  26192.86227579  .00009025  00000+0  24216-3 0  9993
2 56970  97.6309 338.0236 0008044 219.4230 140.6430 15.38173955171470
LEMUR-2-DEVERILL-M-T    
1 57391U 23100F   26192.65962183  .00016364  00000+0  39957-3 0  9996
2 57391  99.4462 238.5083 0004684 310.9621  49.1213 15.40974428165011
LEMUR-2-NIMBUS2000      
1 58899U 24022A   26192.56737305  .00013238  00000+0  32240-3 0  9995
2 58899  97.4092  42.8889 0009120  40.6540 319.5386 15.41012849136024
LEMUR-2-VALHALLA        
1 58900U 24022B   26192.57078803  .00009571  00000+0  23837-3 0  9997
2 58900  97.4090  42.8658 0009603  36.1879 324.0015 15.40414713136025
LEMUR-2-CAEL            
1 58903U 24022E   26192.88410592  .00010558  00000+0  25129-3 0  9992
2 58903  97.4069  44.1632 0007502  20.9178 339.2374 15.41781263136147
LEMUR-2-TOMATOKECHUP    
1 60471U 24149D   26192.79324289  .00006490  00000+0  18430-3 0  9999
2 60471  97.3803 274.9096 0003122 128.0995 232.0531 15.36537067105947
LEMUR-2-STELLA          
1 60533U 24149BT  26192.76554195  .00006496  00000+0  37867-3 0  9997
2 60533  97.6740 275.3352 0001184 113.7387 246.3968 15.12328256104214
LEMUR-2-MARHISYAM       
1 60536U 24149BW  26192.75511137  .00005773  00000+0  34254-3 0  9992
2 60536  97.6885 275.7985 0002821  75.4227 284.7316 15.11737522104198
LEMUR-2-AHMED-ASRAR     
1 60576U 24149DN  26192.76508708  .00006643  00000+0  37730-3 0  9996
2 60576  97.7007 277.9980 0000771 214.4074 145.7107 15.13261688104286
LEMUR-2-LLOYD           
1 60577U 24149DP  26192.17190217  .00006469  00000+0  40523-3 0  9994
2 60577  97.6747 273.3196 0004734  80.8597 279.3167 15.09703583104015
LEMUR-2-SQUIRRELCOMM    
1 60578U 24149DQ  26189.03451372  .00003681  00000+0  24740-3 0  9994
2 60578  97.6707 269.8822 0004746 354.4134   5.7039 15.07397331103542
LEMUR-2-SIERRINI        
1 60579U 24149DR  26191.98895868  .00007045  00000+0  42017-3 0  9999
2 60579  97.6838 274.6929 0006379 101.6319 258.5628 15.11454053104050
LEMUR-2-WILSON          
1 62694U 25009CP  26192.72206181  .00000681  00000+0  67005-4 0  9996
2 62694  97.7027 270.7566 0002281 344.0726  16.0423 14.95271639 81027
LEMUR-2-STAR-FOX        
1 62696U 25009CR  26192.79771790  .00003441  00000+0  26155-3 0  9995
2 62696  97.6921 274.2306 0002706  55.6079 304.5401 15.02816191 81253
LEMUR-2-ARIANNA         
1 62699U 25009CU  26192.79618634  .00003632  00000+0  27574-3 0  9993
2 62699  97.6857 273.9837 0002952  61.1158 299.0362 15.02817181 81256
LEMUR-2-ALISIA          
1 62706U 25009DB  26192.76929690  .00004825  00000+0  36172-3 0  9995
2 62706  97.6972 274.7746 0003840 139.3909 220.7603 15.03143055103853
